SPAWAR-CAL-O            
1 43766U 18099J   26068.73975788  .00021069  00000+0  69663-3 0  9999
2 43766  97.4452 132.0993 0007239 285.0670  74.9770 15.31356755398280
STARLINK-34869          
1 65371U 25190W   26068.54672500  .00035253  00000+0  11967-2 0  9993
2 65371  53.1595 168.8163 0002117  22.8500 337.2595 15.30200898 29734
