[{"OBJECT_NAME":"SPAWAR-CAL-O","OBJECT_ID":"2018-099J","EPOCH":"2026-03-09T17:45:15.080832","MEAN_MOTION":15.31356755,"ECCENTRICITY":0.00072392,"INCLINATION":97.4452,"RA_OF_ASC_NODE":132.0993,"ARG_OF_PERICENTER":285.067,"MEAN_ANOMALY":74.977,"EPHEMERIS_TYPE":0,"CLASSIFICATION_TYPE":"U","NORAD_CAT_ID":43766,"ELEMENT_SET_NO":999,"REV_AT_EPOCH":39828,"BSTAR":0.00069663212,"MEAN_MOTION_DOT":0.00021069,"MEAN_MOTION_DDOT":0},{"OBJECT_NAME":"STARLINK-34869","OBJECT_ID":"2025-190W","EPOCH":"2026-03-09T13:07:17.040000","MEAN_MOTION":15.30200898,"ECCENTRICITY":0.00021177,"INCLINATION":53.1595,"RA_OF_ASC_NODE":168.8163,"ARG_OF_PERICENTER":22.85,"MEAN_ANOMALY":337.2595,"EPHEMERIS_TYPE":0,"CLASSIFICATION_TYPE":"U","NORAD_CAT_ID":65371,"ELEMENT_SET_NO":999,"REV_AT_EPOCH":2973,"BSTAR":0.0011966654,"MEAN_MOTION_DOT":0.00035253,"MEAN_MOTION_DDOT":0}]
